NORAD_CAT_ID,OBJECT_NAME,OBJECT_TYPE,EPOCH,MEAN_MOTION,ECCENTRICITY,INCLINATION,RA_OF_ASC_NODE,ARG_OF_PERICENTER,MEAN_ANOMALY,BSTAR,MEAN_MOTION_DOT,MEAN_MOTION_DDOT,TLE_LINE0,TLE_LINE1,TLE_LINE2,SEMIMAJOR_AXIS,PERIOD,APOGEE,PERIGEE,DECAYED
52875.0,STARLINK-4193,PAYLOAD,2024-05-06 05:11:45,15.08839315,0.0001285,53.2151,152.9676,95.1452,264.9687,0.00019656,2.842e-05,0.0,0 STARLINK-4193,1 52875U 22062AX  24127.21650191  .00002842  00000-0  19656-3 0  9996,2 52875  53.2151 152.9676 0001285  95.1452 264.9687 15.08839315105038,6917.882,95.438,540.636,538.859,0.0
52875.0,STARLINK-4193,PAYLOAD,2024-05-06 08:22:31,15.08843756,0.0001307,53.2154,152.3726,89.795,270.3192,0.00019703,2.85e-05,0.0,0 STARLINK-4193,1 52875U 22062AX  24127.34898011  .00002850  00000-0  19703-3 0  9997,2 52875  53.2154 152.3726 0001307  89.7950 270.3192 15.08843756104561,6917.869,95.437,540.638,538.83,0.0
52875.0,STARLINK-4193,PAYLOAD,2024-05-07 11:24:05,15.08839615,0.0001255,53.2151,147.3175,95.6006,264.5129,2.6025e-05,1.26e-06,0.0,0 STARLINK-4193,1 52875U 22062AX  24128.47506616  .00000126  00000-0  26025-4 0  9999,2 52875  53.2151 147.3175 0001255  95.6006 264.5129 15.08839615105228,6917.882,95.438,540.615,538.878,0.0
52875.0,STARLINK-4193,PAYLOAD,2024-05-07 17:45:38,15.08842135,0.0001281,53.2155,146.1284,97.1228,262.991,3.9166e-05,3.36e-06,0.0,0 STARLINK-4193,1 52875U 22062AX  24128.74002328  .00000336  00000-0  39166-4 0  9993,2 52875  53.2155 146.1284 0001281  97.1228 262.9910 15.08842135104772,6917.874,95.437,540.625,538.853,0.0
52875.0,STARLINK-4193,PAYLOAD,2024-05-08 08:04:06,15.0883632,0.0001399,53.216,143.4536,102.0165,258.0984,-6.0974e-05,-1.258e-05,0.0,0 STARLINK-4193,1 52875U 22062AX  24129.33618995 -.00001258  00000-0 -60974-4 0  9999,2 52875  53.2160 143.4536 0001399 102.0165 258.0984 15.08836320104860,6917.892,95.438,540.724,538.789,0.0
52875.0,STARLINK-4193,PAYLOAD,2024-05-08 17:36:25,15.08842373,0.0001567,53.2162,141.6693,120.4746,239.6401,-5.6291e-05,-1.184e-05,0.0,0 STARLINK-4193,1 52875U 22062AX  24129.73362488 -.00001184  00000-0 -56291-4 0  9991,2 52875  53.2162 141.6693 0001567 120.4746 239.6401 15.08842373105418,6917.873,95.437,540.822,538.654,0.0
52875.0,STARLINK-4193,PAYLOAD,2024-05-09 07:54:53,15.08839128,0.0001374,53.216,138.9928,100.8079,259.3068,7.4909e-05,9.04e-06,0.0,0 STARLINK-4193,1 52875U 22062AX  24130.32978387  .00000904  00000-0  74909-4 0  9992,2 52875  53.2160 138.9928 0001374 100.8079 259.3068 15.08839128105011,6917.883,95.438,540.699,538.798,0.0
52875.0,STARLINK-4193,PAYLOAD,2024-05-09 17:27:11,15.08845714,0.0001272,53.2157,137.2073,90.9646,269.1491,0.0001054,1.39e-05,0.0,0 STARLINK-4193,1 52875U 22062AX  24130.72721945  .00001390  00000-0  10540-3 0  9992,2 52875  53.2157 137.2073 0001272  90.9646 269.1491 15.08845714105079,6917.863,95.437,540.608,538.848,0.0
52875.0,STARLINK-4193,PAYLOAD,2024-05-10 04:34:54,15.08829372,0.0001356,53.2172,135.1272,92.8786,267.2361,4.6679e-05,4.55e-06,0.0,0 STARLINK-4193,1 52875U 22062AX  24131.19091367  .00000455  00000-0  46679-4 0  9996,2 52875  53.2172 135.1272 0001356  92.8786 267.2361 15.08829372105632,6917.913,95.438,540.716,538.84,0.0
52875.0,STARLINK-4193,PAYLOAD,2024-05-10 07:45:41,15.08832151,0.0001701,53.2169,134.532,113.0954,247.0217,2.4128e-05,9.6e-07,0.0,0 STARLINK-4193,1 52875U 22062AX  24131.32339241  .00000096  00000-0  24128-4 0  9993,2 52875  53.2169 134.5320 0001701 113.0954 247.0217 15.08832151105165,6917.904,95.438,540.946,538.593,0.0
52875.0,STARLINK-4193,PAYLOAD,2024-05-10 17:17:59,15.08838329,0.0001465,53.217,132.7475,86.6925,273.4235,7.0975e-05,8.42e-06,0.0,0 STARLINK-4193,1 52875U 22062AX  24131.72082925  .00000842  00000-0  70975-4 0  9991,2 52875  53.2170 132.7475 0001465  86.6925 273.4235 15.08838329105715,6917.885,95.438,540.764,538.737,0.0
52875.0,STARLINK-4193,PAYLOAD,2024-05-11 04:25:41,15.0884743,0.0001289,53.216,130.6655,89.9294,270.1846,0.00010604,1.4e-05,0.0,0 STARLINK-4193,1 52875U 22062AX  24132.18450259  .00001400  00000-0  10604-3 0  9994,2 52875  53.2160 130.6655 0001289  89.9294 270.1846 15.08847430105782,6917.858,95.437,540.614,538.831,0.0
52875.0,STARLINK-4193,PAYLOAD,2024-05-11 09:11:48,15.08873576,0.0001449,53.2171,129.7741,92.0508,268.065,0.00029449,4.406e-05,0.0,0 STARLINK-4193,1 52875U 22062AX  24132.38320435  .00004406  00000-0  29449-3 0  9994,2 52875  53.2171 129.7741 0001449  92.0508 268.0650 15.08873576105813,6917.778,95.435,540.645,538.64,0.0
52875.0,STARLINK-4193,PAYLOAD,2024-05-11 17:08:44,15.08867678,0.0001461,53.2171,128.2875,88.0956,272.0203,0.00019643,2.842e-05,0.0,0 STARLINK-4193,1 52875U 22062AX  24132.71440097  .00002842  00000-0  19643-3 0  9995,2 52875  53.2171 128.2875 0001461  88.0956 272.0203 15.08867678105861,6917.796,95.436,540.671,538.65,0.0
52875.0,STARLINK-4193,PAYLOAD,2024-05-12 05:51:52,15.08818086,0.0001296,53.2161,125.9081,99.712,260.4019,-0.00022445,-3.856e-05,0.0,0 STARLINK-4193,1 52875U 22062AX  24133.24435511 -.00003856  00000-0 -22445-3 0  9991,2 52875  53.2161 125.9081 0001296  99.7120 260.4019 15.08818086105945,6917.947,95.439,540.709,538.916,0.0
52875.0,STARLINK-4193,PAYLOAD,2024-05-12 16:59:34,15.08822516,0.0001393,53.2157,123.8267,100.4638,259.6511,-0.00016722,-2.947e-05,0.0,0 STARLINK-4193,1 52875U 22062AX  24133.70803748 -.00002947  00000-0 -16722-3 0  9994,2 52875  53.2157 123.8267 0001393 100.4638 259.6511 15.08822516106014,6917.934,95.439,540.762,538.835,0.0
52875.0,STARLINK-4193,PAYLOAD,2024-05-13 08:53:26,15.088296,0.0001417,53.2159,120.8516,111.8382,248.2761,-0.00017171,-3.019e-05,0.0,0 STARLINK-4193,1 52875U 22062AX  24134.37043993 -.00003019  00000-0 -17171-3 0  9996,2 52875  53.2159 120.8516 0001417 111.8382 248.2761 15.08829600106112,6917.912,95.438,540.757,538.797,0.0
52875.0,STARLINK-4193,PAYLOAD,2024-05-13 23:11:54,15.08825281,0.0001428,53.2162,118.1759,112.5756,247.5387,0.00036565,5.534e-05,0.0,0 STARLINK-4193,1 52875U 22062AX  24134.96660767  .00005534  00000-0  36565-3 0  9995,2 52875  53.2162 118.1759 0001428 112.5756 247.5387 15.08825281105712,6917.925,95.438,540.778,538.802,0.0
52875.0,STARLINK-4193,PAYLOAD,2024-05-14 05:33:27,15.08833378,0.0001427,53.2161,116.9864,112.8468,247.2675,0.00044273,6.764e-05,0.0,0 STARLINK-4193,1 52875U 22062AX  24135.23156691  .00006764  00000-0  44273-3 0  9993,2 52875  53.2161 116.9864 0001427 112.8468 247.2675 15.08833378105753,6917.901,95.438,540.753,538.778,0.0
52875.0,STARLINK-4193,PAYLOAD,2024-05-14 23:02:41,15.08847778,0.0001439,53.2163,113.7155,113.1535,246.9609,0.00039399,5.989e-05,0.0,0 STARLINK-4193,1 52875U 22062AX  24135.96020134  .00005989  00000-0  39399-3 0  9996,2 52875  53.2163 113.7155 0001439 113.1535 246.9609 15.08847778105869,6917.857,95.437,540.717,538.726,0.0
52875.0,STARLINK-4193,PAYLOAD,2024-05-15 05:24:13,15.0885893,0.0001412,53.2161,112.5266,112.0053,248.1089,0.00051338,7.896e-05,0.0,0 STARLINK-4193,1 52875U 22062AX  24136.22515759  .00007896  00000-0  51338-3 0  9994,2 52875  53.2161 112.5266 0001412 112.0053 248.1089 15.08858930106398,6917.823,95.436,540.664,538.711,0.0
52875.0,STARLINK-4193,PAYLOAD,2024-05-15 08:34:59,15.08867304,0.0001402,53.2161,111.9316,112.0588,248.0553,0.00063225,9.796e-05,0.0,0 STARLINK-4193,1 52875U 22062AX  24136.35763418  .00009796  00000-0  63225-3 0  9994,2 52875  53.2161 111.9316 0001402 112.0588 248.0553 15.08867304105927,6917.797,95.436,540.632,538.692,0.0
52875.0,STARLINK-4193,PAYLOAD,2024-05-16 05:14:59,15.08856986,0.0001272,53.2156,108.0641,102.9805,257.1329,0.000144,2.006e-05,0.0,0 STARLINK-4193,1 52875U 22062AX  24137.21874775  .00002006  00000-0  14400-3 0  9997,2 52875  53.2156 108.0641 0001272 102.9805 257.1329 15.08856986106549,6917.828,95.436,540.573,538.814,0.0
52875.0,STARLINK-4193,PAYLOAD,2024-05-16 14:47:17,15.08868011,0.0001247,53.2165,106.2782,91.0396,269.0739,0.00028056,4.183e-05,0.0,0 STARLINK-4193,1 52875U 22062AX  24137.61617790  .00004183  00000-0  28056-3 0  9993,2 52875  53.2165 106.2782 0001247  91.0396 269.0739 15.08868011106112,6917.795,95.436,540.522,538.797,0.0
52875.0,STARLINK-4193,PAYLOAD,2024-05-17 05:05:46,15.0884164,0.0001557,53.217,103.6034,89.0427,271.0743,-0.00011021,-2.042e-05,0.0,0 STARLINK-4193,1 52875U 22062AX  24138.21234818 -.00002042  00000-0 -11021-3 0  9994,2 52875  53.2170 103.6034 0001557  89.0427 271.0743 15.08841640106695,6917.875,95.437,540.817,538.663,0.0
52875.0,STARLINK-4193,PAYLOAD,2024-05-17 14:38:04,15.08855024,0.0001222,53.2156,101.8189,76.4202,283.6927,0.00014745,2.061e-05,0.0,0 STARLINK-4193,1 52875U 22062AX  24138.60977821  .00002061  00000-0  14745-3 0  9990,2 52875  53.2156 101.8189 0001222  76.4202 283.6927 15.08855024106267,6917.834,95.437,540.545,538.854,0.0
52875.0,STARLINK-4193,PAYLOAD,2024-05-18 04:56:33,15.08846011,0.0001299,53.2161,99.1407,79.9399,280.174,5.4851e-05,5.85e-06,0.0,0 STARLINK-4193,1 52875U 22062AX  24139.20594243  .00000585  00000-0  54851-4 0  9992,2 52875  53.2161  99.1407 0001299  79.9399 280.1740 15.08846011106849,6917.862,95.437,540.626,538.828,0.0
52875.0,STARLINK-4193,PAYLOAD,2024-05-18 14:28:52,15.08849615,0.0001185,53.2157,97.36,101.0538,259.0588,0.00019391,2.8e-05,0.0,0 STARLINK-4193,1 52875U 22062AX  24139.60337982  .00002800  00000-0  19391-3 0  9992,2 52875  53.2157  97.3600 0001185 101.0538 259.0588 15.08849615106416,6917.851,95.437,540.536,538.896,0.0
52875.0,STARLINK-4193,PAYLOAD,2024-05-18 20:50:25,15.08846738,0.0002665,53.2164,96.1691,84.8347,275.2949,0.00033212,5.002e-05,0.0,0 STARLINK-4193,1 52875U 22062AX  24139.86834853  .00005002  00000-0  33212-3 0  9994,2 52875  53.2164  96.1691 0002665  84.8347 275.2949 15.08846738106943,6917.86,95.437,541.568,537.881,0.0
52875.0,STARLINK-4193,PAYLOAD,2024-05-19 04:47:21,15.0882311,0.0001392,53.2163,94.6854,92.5271,267.588,-0.00015892,-2.815e-05,0.0,0 STARLINK-4193,1 52875U 22062AX  24140.19955655 -.00002815  00000-0 -15892-3 0  9991,2 52875  53.2163  94.6854 0001392  92.5271 267.5880 15.08823110106996,6917.932,95.439,540.76,538.834,0.0
